EUTELSAT 21B            
1 38992U 12062B   26002.75185509  .00000136  00000+0  00000+0 0  9990
2 38992   0.0654   8.8731 0003001 275.9529 109.8236  1.00269291 48166
EUTELSAT 70B            
1 39020U 12069A   26002.73031137 -.00000037  00000+0  00000+0 0  9996
2 39020   0.0609   7.8555 0003901 254.7611 173.1497  1.00271543 47859
EUTELSAT 7B             
1 39163U 13022A   26002.74890840  .00000054  00000+0  00000+0 0  9997
2 39163   0.0660 352.2137 0005288 332.0152  54.7484  1.00269856 46287
EXPRESS-AT1             
1 39612U 14010A   26002.75861513  .00000085  00000+0  00000+0 0  9994
2 39612   0.0216 278.2478 0000548 332.0652 181.1615  1.00268423 43150
EUTELSAT 3B             
1 39773U 14030A   26002.74812840  .00000026  00000+0  00000+0 0  9997
2 39773   0.0616  11.3990 0004259 231.6275 131.7629  1.00271639 42401
